satname,norad_id,inclination_deg,eccentricity,mean_motion_rev_per_day,perigee_km,apogee_km,l1,l2
STARLINK-1008,44714,53.1548,0.0001347,15.31056732,471.73541288982597,473.5810171207486,1 44714U 19074B   26036.78501608  .00007477  00000+0  25750-3 0  9999,2 44714  53.1548 327.1470 0001347  93.8909 266.2246 15.31056732343983
STARLINK-1012,44718,53.1597,0.0001121,15.30207011,474.42587749665654,475.9623943373281,1 44718U 19074F   26036.81323676  .00002477  00000+0  95720-4 0  9994,2 44718  53.1597 326.8726 0001121  86.7386 273.3743 15.30207011343989
STARLINK-1017,44723,53.0466,0.0003239,15.21586945,498.82516418250907,503.2815036808297,1 44723U 19074L   26036.77479829  .00037426  00000+0  16440-2 0  9999,2 44723  53.0466 318.3811 0003239 106.5251 253.6101 15.21586945344104
STARLINK-1019,44724,53.0475,0.0011086,15.71752141,346.42612846699194,361.352377074636,1 44724U 19074M   26036.91670139  .00092939  00000+0  69868-3 0  9996,2 44724  53.0475 295.3850 0011086  89.8318 250.3591 15.71752141  5893
STARLINK-1020,44725,53.057,0.0001368,15.06418952,546.2060936600719,548.1008531335929,1 44725U 19074N   26036.57275281  .00000678  00000+0  64409-4 0  9994,2 44725  53.0570 350.7994 0001368  94.8847 265.2299 15.06418952343623
STARLINK-1031,44736,53.0434,0.0006773,15.7739086,333.2875776617648,342.3850351025894,1 44736U 19074Z   26036.91670139  .00179630  00000+0  10460-2 0  9996,2 44736  53.0434 280.4298 0006773 120.5095 333.4525 15.77390860  5953
STARLINK-1036,44741,53.0553,0.0005873,15.49408829,414.4626905462792,422.445966720893,1 44741U 19074AE  26036.91670139  .00090532  00000+0  16104-2 0  9996,2 44741  53.0553 341.5734 0005873 106.0788 123.9080 15.49408829  5685
STARLINK-1039,44744,53.0504,0.0005994,15.18995652,504.7466259405519,513.0027755674164,1 44744U 19074AH  26036.59779101  .00077043  00000+0  36124-2 0  9998,2 44744  53.0504   2.2798 0005994  77.5939 282.5726 15.18995652343471
STARLINK-1042,44747,53.0434,0.0003638,15.4814356,419.6830294197198,424.63092331692496,1 44747U 19074AL  26036.84365742  .00032546  00000+0  61517-3 0  9995,2 44747  53.0434 247.3864 0003638  97.9775 262.1645 15.48143560345134
STARLINK-1043,44748,53.0555,0.000255,15.5152742,410.53426086055424,413.99736629547806,1 44748U 19074AM  26036.85774541  .00045549  00000+0  76012-3 0  9991,2 44748  53.0555 347.8223 0002550  53.6298 306.4946 15.51527420343707
STARLINK-1046,44751,53.0554,0.0007105,15.41373893,437.20780663753794,446.89929741196556,1 44751U 19074AQ  26036.91670139  .00160756  00000+0  37203-2 0  9996,2 44751  53.0554   1.5541 0007105  80.4119 239.4089 15.41373893  5708
STARLINK-1047,44752,53.0695,0.0004808,15.31828029,467.065617444674,473.6511305963322,1 44752U 19074AR  26036.85998542  .00016333  00000+0  53467-3 0  9993,2 44752  53.0695 294.6119 0004808 111.2536 248.8978 15.31828029344469
STARLINK-1048,44753,53.055,0.0006074,15.48060943,418.26827433605376,426.529565371492,1 44753U 19074AS  26036.91670139  .01199369  00000+0  20488-1 0  9997,2 44753  53.0550 321.5116 0006074  90.1929 107.0709 15.48060943  5907
STARLINK-1053,44758,53.0314,0.0001649,15.79168537,331.68859368314224,333.9018591314116,1 44758U 19074AX  26036.91670139  .00205105  00000+0  11003-2 0  9991,2 44758  53.0314 244.0502 0001649 176.9795 322.7390 15.79168537  6034
STARLINK-1060,44765,53.0342,0.0004683,16.09214836,245.89459122039443,252.1015659349914,1 44765U 19074BE  26036.65842609  .01067170  68067-3  11709-2 0  9996,2 44765  53.0342 283.4188 0004683 232.1675 127.8935 16.09214836344574
STARLINK-1063,44768,53.1589,0.0001488,15.30152941,474.33578301564376,476.3753824082587,1 44768U 19074BH  26036.91670139  .00056385  00000+0  19042-2 0  9997,2 44768  53.1589   6.9781 0001488  95.8165 114.0159 15.30152941  5432
STARLINK-1067,44771,53.0549,0.000796,15.49366747,413.1672105384423,423.9875798555968,1 44771U 19074BL  26036.91670139  .00187510  00000+0  32893-2 0  9995,2 44771  53.0549 357.5253 0007960  95.0878 233.6387 15.49366747  5683
STARLINK-1068,44772,53.0541,0.0005211,15.56311873,394.8106323368829,401.8730786000524,1 44772U 19074BM  26036.91670139  .00105274  00000+0  14563-2 0  9997,2 44772  53.0541 334.6161 0005211 108.2526 305.5108 15.56311873  5895
STARLINK-1112,44925,53.0447,0.0002881,15.86001159,311.57933676925495,315.4350621569856,1 44925U 20001M   26036.91670139  .00285560  00000+0  11012-2 0  9992,2 44925  53.0447  44.4039 0002881  36.3212 155.9903 15.86001159  5989
STARLINK-1114,44927,53.0518,0.0005917,15.44918933,427.5869508763917,435.64561291018435,1 44927U 20001P   26036.70873733  .00093237  00000+0  19362-2 0  9990,2 44927  53.0518 122.2289 0005917   4.4077 355.6980 15.44918933335149
STARLINK-1123,44930,53.0537,0.0001352,15.06427516,546.1909309215325,548.0635223684167,1 44930U 20001S   26036.74415832  .00018482  00000+0  12554-2 0  9995,2 44930  53.0537 130.0303 0001352  82.3863 277.7280 15.06427516335030
STARLINK-1144,44933,53.031,0.0005328,16.08057353,248.64521576972493,255.71047927124255,1 44933U 20001V   26036.90888302  .00918263  47455-3  10818-2 0  9998,2 44933  53.0310  13.5897 0005328  78.8843 281.2788 16.08057353337979
STARLINK-1094,44941,53.1611,0.0001326,15.30193103,474.3269054804068,476.14441991055355,1 44941U 20001AD  26036.22203038  .00001473  00000+0  61851-4 0  9991,2 44941  53.1611 110.3735 0001326  94.2257 265.8895 15.30193103335260
STARLINK-1122,44949,53.1543,0.000134,15.29365128,476.79029728896785,478.62766401178214,1 44949U 20001AM  26036.57166899  .00006671  00000+0  24323-3 0  9997,2 44949  53.1543 108.7599 0001340  91.4642 268.6512 15.29365128335313
STARLINK-1080,44961,53.0529,0.0006582,15.43078194,432.5450351263744,441.5165219900682,1 44961U 20001AZ  26036.52318163  .00098752  00000+0  21800-2 0  9996,2 44961  53.0529  81.2845 0006582  17.2764 342.8463 15.43078194335706
STARLINK-1090,44968,53.0525,0.0001325,15.06399749,546.2947184313771,548.1299360030898,1 44968U 20001BG  26036.58199166  .00010918  00000+0  75070-3 0  9996,2 44968  53.0525  90.7574 0001325 100.3927 259.7212 15.06399749335572
STARLINK-1132,45044,53.1586,0.0003434,15.38680015,447.6668442184882,452.35641669788765,1 45044U 20006A   26035.32950702  .00091023  00000+0  23288-2 0  9998,2 45044  53.1586  51.5685 0003434  79.6108 280.5283 15.38680015331789
STARLINK-1131,45047,53.1545,0.0001383,15.29324691,476.8816505636005,478.7780109889927,1 45047U 20006D   26036.91670139  .00083799  00000+0  28865-2 0  9997,2 45047  53.1545  68.5077 0001383  92.1534 263.7454 15.29324691  5780
STARLINK-1134,45048,53.035,0.000713,15.39658901,442.2507789873498,451.9835914554742,1 45048U 20006E   26036.28119275  .00147523  00000+0  36200-2 0  9995,2 45048  53.0350  31.9802 0007130  70.5634 289.6139 15.39658901332146
STARLINK-1156,45054,53.1437,0.0001402,15.26629541,484.9342511763589,486.8589261946263,1 45054U 20006L   26036.91670139  .00949513  00000+0  33039-1 0  9998,2 45054  53.1437  68.4753 0001402  81.1370 154.7884 15.26629541  5837
STARLINK-1159,45057,53.0478,0.0004934,15.71188579,352.1765657771948,358.8213177245143,1 45057U 20006P   26036.91670139  .00255939  00000+0  19294-2 0  9991,2 45057  53.0478  33.5047 0004934  22.5481 186.3752 15.71188579  6004
STARLINK-1166,45060,53.0537,0.0004111,15.41198257,439.7677045359351,445.37569122733385,1 45060U 20006S   26036.91670139  .00158060  00000+0  36824-2 0  9990,2 45060  53.0537  63.6121 0004111  35.3356 359.6435 15.41198257  5802
STARLINK-1169,45061,53.1341,0.0001121,15.24392228,491.84085162845986,493.3812733440682,1 45061U 20006T   26036.91670139  .00760531  00000+0  28426-1 0  9991,2 45061  53.1341  68.4640 0001121  88.8423 333.9355 15.24392228  5836
STARLINK-1171,45062,53.0483,0.0004028,15.50916725,411.31234800997754,416.784132439504,1 45062U 20006U   26036.00002315  .00152828  00000+0  25526-2 0  9990,2 45062  53.0483  47.3956 0004028 286.9649 149.6754 15.50916725  5905
STARLINK-1133,45064,53.1585,0.0001114,15.30197625,474.4586965398921,475.98562496090744,1 45064U 20006W   26036.46525504  .00000261  00000+0  20936-4 0  9997,2 45064  53.1585  47.4794 0001114  88.3150 271.7978 15.30197625331945
STARLINK-1167,45071,53.1603,0.0001964,15.29368026,476.3538334347386,479.0468063339904,1 45071U 20006AD  26036.41019464  .00001156  00000+0  52369-4 0  9992,2 45071  53.1603  47.5962 0001964  74.4893 285.6324 15.29368026331936
STARLINK-1168,45072,53.1629,0.0001607,15.29371276,476.5888756911181,478.79233868406754,1 45072U 20006AE  26036.41998233  .00002098  00000+0  84972-4 0  9994,2 45072  53.1629  47.6103 0001607 102.9537 257.1643 15.29371276331938
STARLINK-1172,45074,53.1587,0.0001316,15.30199858,474.31359221762887,476.11739459389264,1 45074U 20006AG  26036.05019829  .00007697  00000+0  27172-3 0  9999,2 45074  53.1587  49.4322 0001316  96.2258 263.8893 15.30199858331878
STARLINK-1153,45080,53.1579,0.0001291,15.29343349,476.88897064707817,478.6591668850342,1 45080U 20006AN  26036.39460806  .00003598  00000+0  13700-3 0  9996,2 45080  53.1579  47.5857 0001291  88.8901 271.2247 15.29343349331939
STARLINK-1151,45081,53.0524,0.0011099,15.52860912,400.8454781768478,415.91018379867455,1 45081U 20006AP  26036.91670139  .00181484  00000+0  28104-2 0  9991,2 45081  53.0524  34.0615 0011099  35.9399 168.3689 15.52860912  5898
STARLINK-1185,45087,53.0859,0.0002091,15.14225474,521.887859977348,524.7740538769349,1 45087U 20006AV  26036.91670139  .00125460  00000+0  66858-2 0  9997,2 45087  53.0859  29.0725 0002091  90.7275 114.3529 15.14225474  5839
STARLINK-1183,45088,53.0741,0.0001078,15.11170452,531.8843047562614,533.3742659673862,1 45088U 20006AW  26036.91670139  .01023336  00000+0  55939-1 0  9995,2 45088  53.0741  29.1915 0001078  81.3928 298.7078 15.11170452  5835
STARLINK-1152,45096,53.0439,0.0006178,15.34392356,458.4996747437117,466.95224501693883,1 45096U 20006BE  26036.26667774  .00028590  00000+0  85384-3 0  9998,2 45096  53.0439 358.9173 0006178  86.7812 273.3895 15.34392356332602
